[{"OBJECT_NAME":"TIANMU-1 22","OBJECT_ID":"2023-208D","EPOCH":"2026-03-09T22:39:05.738688","MEAN_MOTION":15.29457749,"ECCENTRICITY":0.00031332,"INCLINATION":97.4379,"RA_OF_ASC_NODE":184.9419,"ARG_OF_PERICENTER":351.9312,"MEAN_ANOMALY":8.1877,"EPHEMERIS_TYPE":0,"CLASSIFICATION_TYPE":"U","NORAD_CAT_ID":58663,"ELEMENT_SET_NO":999,"REV_AT_EPOCH":12215,"BSTAR":0.00038239675,"MEAN_MOTION_DOT":0.00010851,"MEAN_MOTION_DDOT":0},{"OBJECT_NAME":"STARLINK-36083","OBJECT_ID":"2025-281K","EPOCH":"2026-03-09T04:13:09.355872","MEAN_MOTION":15.27607923,"ECCENTRICITY":0.00012776,"INCLINATION":43.0038,"RA_OF_ASC_NODE":346.6606,"ARG_OF_PERICENTER":277.807,"MEAN_ANOMALY":82.2637,"EPHEMERIS_TYPE":0,"CLASSIFICATION_TYPE":"U","NORAD_CAT_ID":66857,"ELEMENT_SET_NO":999,"REV_AT_EPOCH":1610,"BSTAR":0.0012797401,"MEAN_MOTION_DOT":0.00035151,"MEAN_MOTION_DDOT":0}]
